STARLINK-35841          
1 67086U 25298M   26004.83335648 -.00078405  00000+0 -12821-2 0  9996
2 67086  69.9996 184.9521 0003438 276.1217 153.4861 15.52566686  4687
STARLINK-35842          
1 67087U 25298N   26004.83335648  .00068481  00000+0  15559-2 0  9999
2 67087  69.9995 185.2777 0003478 272.1297 234.1972 15.42662004  4682
STARLINK-35882          
1 67088U 25298P   26004.83335648 -.00086481  00000+0 -14157-2 0  9995
2 67088  69.9996 184.9485 0003475 275.5685 157.8755 15.52568198  4681
STARLINK-35763          
1 67089U 25298Q   26004.83335648 -.02103907  00000+0 -39517-1 0  9997
2 67089  69.9995 184.9458 0003352 275.9637 159.1423 15.51760015  4684
STARLINK-36060          
1 67090U 25298R   26004.83335648  .00104408  00000+0  16813-2 0  9997
2 67090  69.9995 184.9425 0003443 269.6962 167.5711 15.52458536  4622
STARLINK-36097          
1 67091U 25298S   26004.83335648 -.00064703  00000+0 -10566-2 0  9992
2 67091  69.9995 184.9396 0003328 276.0525 163.1604 15.52542584  4685
STARLINK-35792          
1 67092U 25298T   26004.83335648 -.00042860  00000+0 -69737-3 0  9998
2 67092  69.9995 184.9374 0003397 269.7951 171.3370 15.52531419  4620
STARLINK-35784          
1 67093U 25298U   26004.83335648 -.02334654  00000+0 -54961-1 0  9997
2 67093  69.9998 184.9606 0003381 284.5191 135.7675 15.45142368  4687
STARLINK-36202          
1 67094U 25298V   26004.83335648 -.02046241  00000+0 -44301-1 0  9997
2 67094  69.9996 184.9435 0003630 277.3481 158.2587 15.47661345  4680
STARLINK-36227          
1 67095U 25298W   26004.83335648 -.00046125  00000+0 -75100-3 0  9990
2 67095  69.9995 184.9302 0003392 271.8259 175.0546 15.52531998  4622
STARLINK-36228          
1 67096U 25298X   26004.83335648 -.00027521  00000+0 -44602-3 0  9993
2 67096  69.9995 184.9284 0003307 270.0739 178.7158 15.52528143  4629
STARLINK-36222          
1 67097U 25298Y   26004.83335648 -.00069864  00000+0 -11418-2 0  9998
2 67097  69.9996 184.9256 0003301 272.9523 177.7603 15.52544413  4628
