CCSDS_OMM_VERS = 2.0
CREATION_DATE  = 
ORIGINATOR     = 

OBJECT_NAME    = STARLINK-35841
OBJECT_ID      = 2025-298M
CENTER_NAME    = EARTH
REF_FRAME      = TEME
TIME_SYSTEM    = UTC
MEAN_ELEMENT_THEORY = SGP/SGP4

EPOCH          = 2026-01-04T20:00:01.999872
MEAN_MOTION    = 15.52566686
ECCENTRICITY   = .0003438
INCLINATION    = 69.9996
RA_OF_ASC_NODE = 184.9521
ARG_OF_PERICENTER = 276.1217
MEAN_ANOMALY   = 153.4861

EPHEMERIS_TYPE = 0
CLASSIFICATION_TYPE = U
NORAD_CAT_ID   = 67086
ELEMENT_SET_NO = 999
REV_AT_EPOCH   = 468
BSTAR          = -.12821E-2
MEAN_MOTION_DOT = -.78405E-3
MEAN_MOTION_DDOT = 0

CCSDS_OMM_VERS = 2.0
CREATION_DATE  = 
ORIGINATOR     = 

OBJECT_NAME    = STARLINK-35842
OBJECT_ID      = 2025-298N
CENTER_NAME    = EARTH
REF_FRAME      = TEME
TIME_SYSTEM    = UTC
MEAN_ELEMENT_THEORY = SGP/SGP4

EPOCH          = 2026-01-04T20:00:01.999872
MEAN_MOTION    = 15.42662004
ECCENTRICITY   = .0003478
INCLINATION    = 69.9995
RA_OF_ASC_NODE = 185.2777
ARG_OF_PERICENTER = 272.1297
MEAN_ANOMALY   = 234.1972

EPHEMERIS_TYPE = 0
CLASSIFICATION_TYPE = U
NORAD_CAT_ID   = 67087
ELEMENT_SET_NO = 999
REV_AT_EPOCH   = 468
BSTAR          = .15559E-2
MEAN_MOTION_DOT = .68481E-3
MEAN_MOTION_DDOT = 0

CCSDS_OMM_VERS = 2.0
CREATION_DATE  = 
ORIGINATOR     = 

OBJECT_NAME    = STARLINK-35882
OBJECT_ID      = 2025-298P
CENTER_NAME    = EARTH
REF_FRAME      = TEME
TIME_SYSTEM    = UTC
MEAN_ELEMENT_THEORY = SGP/SGP4

EPOCH          = 2026-01-04T20:00:01.999872
MEAN_MOTION    = 15.52568198
ECCENTRICITY   = .0003475
INCLINATION    = 69.9996
RA_OF_ASC_NODE = 184.9485
ARG_OF_PERICENTER = 275.5685
MEAN_ANOMALY   = 157.8755

EPHEMERIS_TYPE = 0
CLASSIFICATION_TYPE = U
NORAD_CAT_ID   = 67088
ELEMENT_SET_NO = 999
REV_AT_EPOCH   = 468
BSTAR          = -.14157E-2
MEAN_MOTION_DOT = -.86481E-3
MEAN_MOTION_DDOT = 0

CCSDS_OMM_VERS = 2.0
CREATION_DATE  = 
ORIGINATOR     = 

OBJECT_NAME    = STARLINK-35763
OBJECT_ID      = 2025-298Q
CENTER_NAME    = EARTH
REF_FRAME      = TEME
TIME_SYSTEM    = UTC
MEAN_ELEMENT_THEORY = SGP/SGP4

EPOCH          = 2026-01-04T20:00:01.999872
MEAN_MOTION    = 15.51760015
ECCENTRICITY   = .0003352
INCLINATION    = 69.9995
RA_OF_ASC_NODE = 184.9458
ARG_OF_PERICENTER = 275.9637
MEAN_ANOMALY   = 159.1423

EPHEMERIS_TYPE = 0
CLASSIFICATION_TYPE = U
NORAD_CAT_ID   = 67089
ELEMENT_SET_NO = 999
REV_AT_EPOCH   = 468
BSTAR          = -.39517E-1
MEAN_MOTION_DOT = -.2103907E-1
MEAN_MOTION_DDOT = 0

CCSDS_OMM_VERS = 2.0
CREATION_DATE  = 
ORIGINATOR     = 

OBJECT_NAME    = STARLINK-36060
OBJECT_ID      = 2025-298R
CENTER_NAME    = EARTH
REF_FRAME      = TEME
TIME_SYSTEM    = UTC
MEAN_ELEMENT_THEORY = SGP/SGP4

EPOCH          = 2026-01-04T20:00:01.999872
MEAN_MOTION    = 15.52458536
ECCENTRICITY   = .0003443
INCLINATION    = 69.9995
RA_OF_ASC_NODE = 184.9425
ARG_OF_PERICENTER = 269.6962
MEAN_ANOMALY   = 167.5711

EPHEMERIS_TYPE = 0
CLASSIFICATION_TYPE = U
NORAD_CAT_ID   = 67090
ELEMENT_SET_NO = 999
REV_AT_EPOCH   = 462
BSTAR          = .16813E-2
MEAN_MOTION_DOT = .104408E-2
MEAN_MOTION_DDOT = 0

CCSDS_OMM_VERS = 2.0
CREATION_DATE  = 
ORIGINATOR     = 

OBJECT_NAME    = STARLINK-36097
OBJECT_ID      = 2025-298S
CENTER_NAME    = EARTH
REF_FRAME      = TEME
TIME_SYSTEM    = UTC
MEAN_ELEMENT_THEORY = SGP/SGP4

EPOCH          = 2026-01-04T20:00:01.999872
MEAN_MOTION    = 15.52542584
ECCENTRICITY   = .0003328
INCLINATION    = 69.9995
RA_OF_ASC_NODE = 184.9396
ARG_OF_PERICENTER = 276.0525
MEAN_ANOMALY   = 163.1604

EPHEMERIS_TYPE = 0
CLASSIFICATION_TYPE = U
NORAD_CAT_ID   = 67091
ELEMENT_SET_NO = 999
REV_AT_EPOCH   = 468
BSTAR          = -.10566E-2
MEAN_MOTION_DOT = -.64703E-3
MEAN_MOTION_DDOT = 0

CCSDS_OMM_VERS = 2.0
CREATION_DATE  = 
ORIGINATOR     = 

OBJECT_NAME    = STARLINK-35792
OBJECT_ID      = 2025-298T
CENTER_NAME    = EARTH
REF_FRAME      = TEME
TIME_SYSTEM    = UTC
MEAN_ELEMENT_THEORY = SGP/SGP4

EPOCH          = 2026-01-04T20:00:01.999872
MEAN_MOTION    = 15.52531419
ECCENTRICITY   = .0003397
INCLINATION    = 69.9995
RA_OF_ASC_NODE = 184.9374
ARG_OF_PERICENTER = 269.7951
MEAN_ANOMALY   = 171.3370

EPHEMERIS_TYPE = 0
CLASSIFICATION_TYPE = U
NORAD_CAT_ID   = 67092
ELEMENT_SET_NO = 999
REV_AT_EPOCH   = 462
BSTAR          = -.69737E-3
MEAN_MOTION_DOT = -.4286E-3
MEAN_MOTION_DDOT = 0

CCSDS_OMM_VERS = 2.0
CREATION_DATE  = 
ORIGINATOR     = 

OBJECT_NAME    = STARLINK-35784
OBJECT_ID      = 2025-298U
CENTER_NAME    = EARTH
REF_FRAME      = TEME
TIME_SYSTEM    = UTC
MEAN_ELEMENT_THEORY = SGP/SGP4

EPOCH          = 2026-01-04T20:00:01.999872
MEAN_MOTION    = 15.45142368
ECCENTRICITY   = .0003381
INCLINATION    = 69.9998
RA_OF_ASC_NODE = 184.9606
ARG_OF_PERICENTER = 284.5191
MEAN_ANOMALY   = 135.7675

EPHEMERIS_TYPE = 0
CLASSIFICATION_TYPE = U
NORAD_CAT_ID   = 67093
ELEMENT_SET_NO = 999
REV_AT_EPOCH   = 468
BSTAR          = -.54961E-1
MEAN_MOTION_DOT = -.2334654E-1
MEAN_MOTION_DDOT = 0

CCSDS_OMM_VERS = 2.0
CREATION_DATE  = 
ORIGINATOR     = 

OBJECT_NAME    = STARLINK-36202
OBJECT_ID      = 2025-298V
CENTER_NAME    = EARTH
REF_FRAME      = TEME
TIME_SYSTEM    = UTC
MEAN_ELEMENT_THEORY = SGP/SGP4

EPOCH          = 2026-01-04T20:00:01.999872
MEAN_MOTION    = 15.47661345
ECCENTRICITY   = .000363
INCLINATION    = 69.9996
RA_OF_ASC_NODE = 184.9435
ARG_OF_PERICENTER = 277.3481
MEAN_ANOMALY   = 158.2587

EPHEMERIS_TYPE = 0
CLASSIFICATION_TYPE = U
NORAD_CAT_ID   = 67094
ELEMENT_SET_NO = 999
REV_AT_EPOCH   = 468
BSTAR          = -.44301E-1
MEAN_MOTION_DOT = -.2046241E-1
MEAN_MOTION_DDOT = 0

CCSDS_OMM_VERS = 2.0
CREATION_DATE  = 
ORIGINATOR     = 

OBJECT_NAME    = STARLINK-36227
OBJECT_ID      = 2025-298W
CENTER_NAME    = EARTH
REF_FRAME      = TEME
TIME_SYSTEM    = UTC
MEAN_ELEMENT_THEORY = SGP/SGP4

EPOCH          = 2026-01-04T20:00:01.999872
MEAN_MOTION    = 15.52531998
ECCENTRICITY   = .0003392
INCLINATION    = 69.9995
RA_OF_ASC_NODE = 184.9302
ARG_OF_PERICENTER = 271.8259
MEAN_ANOMALY   = 175.0546

EPHEMERIS_TYPE = 0
CLASSIFICATION_TYPE = U
NORAD_CAT_ID   = 67095
ELEMENT_SET_NO = 999
REV_AT_EPOCH   = 462
BSTAR          = -.751E-3
MEAN_MOTION_DOT = -.46125E-3
MEAN_MOTION_DDOT = 0

CCSDS_OMM_VERS = 2.0
CREATION_DATE  = 
ORIGINATOR     = 

OBJECT_NAME    = STARLINK-36228
OBJECT_ID      = 2025-298X
CENTER_NAME    = EARTH
REF_FRAME      = TEME
TIME_SYSTEM    = UTC
MEAN_ELEMENT_THEORY = SGP/SGP4

EPOCH          = 2026-01-04T20:00:01.999872
MEAN_MOTION    = 15.52528143
ECCENTRICITY   = .0003307
INCLINATION    = 69.9995
RA_OF_ASC_NODE = 184.9284
ARG_OF_PERICENTER = 270.0739
MEAN_ANOMALY   = 178.7158

EPHEMERIS_TYPE = 0
CLASSIFICATION_TYPE = U
NORAD_CAT_ID   = 67096
ELEMENT_SET_NO = 999
REV_AT_EPOCH   = 462
BSTAR          = -.44602E-3
MEAN_MOTION_DOT = -.27521E-3
MEAN_MOTION_DDOT = 0

CCSDS_OMM_VERS = 2.0
CREATION_DATE  = 
ORIGINATOR     = 

OBJECT_NAME    = STARLINK-36222
OBJECT_ID      = 2025-298Y
CENTER_NAME    = EARTH
REF_FRAME      = TEME
TIME_SYSTEM    = UTC
MEAN_ELEMENT_THEORY = SGP/SGP4

EPOCH          = 2026-01-04T20:00:01.999872
MEAN_MOTION    = 15.52544413
ECCENTRICITY   = .0003301
INCLINATION    = 69.9996
RA_OF_ASC_NODE = 184.9256
ARG_OF_PERICENTER = 272.9523
MEAN_ANOMALY   = 177.7603

EPHEMERIS_TYPE = 0
CLASSIFICATION_TYPE = U
NORAD_CAT_ID   = 67097
ELEMENT_SET_NO = 999
REV_AT_EPOCH   = 462
BSTAR          = -.11418E-2
MEAN_MOTION_DOT = -.69864E-3
MEAN_MOTION_DDOT = 0

